KUIPER-00152            
1 65772U 25217L   25364.91670139  .00007855  00000+0  44139-3 0  9998
2 65772  51.8882 337.5216 0002654 100.6705  53.3848 15.14164566  5346
KUIPER-00153            
1 65773U 25217M   25364.35359295  .00023534  00000+0  13791-2 0  9995
2 65773  51.8781 350.2720 0013563  82.1233 278.1281 15.11607397 14606
KUIPER-00155            
1 65774U 25217N   25364.91670139 -.00214597  00000+0 -66932-2 0  9999
2 65774  51.8678 336.8356 0008747  86.5643 359.2706 15.33505703  4343
KUIPER-00156            
1 65775U 25217P   25364.91670139 -.01364524  00000+0 -49779-1 0  9996
2 65775  51.8751 336.0769 0002502  93.4003   6.6107 15.30706148  5674
KUIPER-00158            
1 65776U 25217Q   25364.91670139  .00031766  00000+0  41778-2 0  9995
2 65776  51.8978 349.7073 0000973  54.4740 207.1457 14.79916744  3176
KUIPER-00163            
1 65777U 25217R   25364.93241262  .00085445  00000+0  11152-1 0  9994
2 65777  51.8979 352.1412 0001198  90.8421 269.2678 14.79719238 14628
KUIPER-00165            
1 65778U 25217S   25364.91670139 -.01040687  00000+0 -94522-1 0  9996
2 65778  51.8937 340.7398 0006183 100.5683 152.5184 14.97816589  4810
KUIPER-00166            
1 65779U 25217T   25364.31169772  .00054562  00000+0  14282-2 0  9997
2 65779  51.8722 339.0115 0004356  62.8142 297.3288 15.38181436 14750
