<?xml version="1.0" encoding="UTF-8"?>
<ndm xmlns:xsi="http://www.w3.org/2001/XMLSchema-instance" xsi:noNamespaceSchemaLocation="https://sanaregistry.org/r/ndmxml_unqualified/ndmxml-2.0.0-master-2.0.xsd">
<omm id="CCSDS_OMM_VERS" version="2.0">
<header><CREATION_DATE/><ORIGINATOR/></header><body><segment><metadata><OBJECT_NAME>KUIPER-00152</OBJECT_NAME><OBJECT_ID>2025-217L</OBJECT_ID><CENTER_NAME>EARTH</CENTER_NAME><REF_FRAME>TEME</REF_FRAME><TIME_SYSTEM>UTC</TIME_SYSTEM><MEAN_ELEMENT_THEORY>SGP4</MEAN_ELEMENT_THEORY></metadata><data><meanElements><EPOCH>2025-12-30T22:00:03.000096</EPOCH><MEAN_MOTION>15.14164566</MEAN_MOTION><ECCENTRICITY>.00026548</ECCENTRICITY><INCLINATION>51.8882</INCLINATION><RA_OF_ASC_NODE>337.5216</RA_OF_ASC_NODE><ARG_OF_PERICENTER>100.6705</ARG_OF_PERICENTER><MEAN_ANOMALY>53.3848</MEAN_ANOMALY></meanElements><tleParameters><EPHEMERIS_TYPE>0</EPHEMERIS_TYPE><CLASSIFICATION_TYPE>U</CLASSIFICATION_TYPE><NORAD_CAT_ID>65772</NORAD_CAT_ID><ELEMENT_SET_NO>999</ELEMENT_SET_NO><REV_AT_EPOCH>534</REV_AT_EPOCH><BSTAR>.44139209E-3</BSTAR><MEAN_MOTION_DOT>.7855E-4</MEAN_MOTION_DOT><MEAN_MOTION_DDOT>0</MEAN_MOTION_DDOT></tleParameters></data></segment></body></omm>
<omm id="CCSDS_OMM_VERS" version="2.0">
<header><CREATION_DATE/><ORIGINATOR/></header><body><segment><metadata><OBJECT_NAME>KUIPER-00153</OBJECT_NAME><OBJECT_ID>2025-217M</OBJECT_ID><CENTER_NAME>EARTH</CENTER_NAME><REF_FRAME>TEME</REF_FRAME><TIME_SYSTEM>UTC</TIME_SYSTEM><MEAN_ELEMENT_THEORY>SGP4</MEAN_ELEMENT_THEORY></metadata><data><meanElements><EPOCH>2025-12-30T08:29:10.430880</EPOCH><MEAN_MOTION>15.11607397</MEAN_MOTION><ECCENTRICITY>.00135638</ECCENTRICITY><INCLINATION>51.8781</INCLINATION><RA_OF_ASC_NODE>350.2720</RA_OF_ASC_NODE><ARG_OF_PERICENTER>82.1233</ARG_OF_PERICENTER><MEAN_ANOMALY>278.1281</MEAN_ANOMALY></meanElements><tleParameters><EPHEMERIS_TYPE>0</EPHEMERIS_TYPE><CLASSIFICATION_TYPE>U</CLASSIFICATION_TYPE><NORAD_CAT_ID>65773</NORAD_CAT_ID><ELEMENT_SET_NO>999</ELEMENT_SET_NO><REV_AT_EPOCH>1460</REV_AT_EPOCH><BSTAR>.13790513E-2</BSTAR><MEAN_MOTION_DOT>.23534E-3</MEAN_MOTION_DOT><MEAN_MOTION_DDOT>0</MEAN_MOTION_DDOT></tleParameters></data></segment></body></omm>
<omm id="CCSDS_OMM_VERS" version="2.0">
<header><CREATION_DATE/><ORIGINATOR/></header><body><segment><metadata><OBJECT_NAME>KUIPER-00155</OBJECT_NAME><OBJECT_ID>2025-217N</OBJECT_ID><CENTER_NAME>EARTH</CENTER_NAME><REF_FRAME>TEME</REF_FRAME><TIME_SYSTEM>UTC</TIME_SYSTEM><MEAN_ELEMENT_THEORY>SGP4</MEAN_ELEMENT_THEORY></metadata><data><meanElements><EPOCH>2025-12-30T22:00:03.000096</EPOCH><MEAN_MOTION>15.33505703</MEAN_MOTION><ECCENTRICITY>.00087472</ECCENTRICITY><INCLINATION>51.8678</INCLINATION><RA_OF_ASC_NODE>336.8356</RA_OF_ASC_NODE><ARG_OF_PERICENTER>86.5643</ARG_OF_PERICENTER><MEAN_ANOMALY>359.2706</MEAN_ANOMALY></meanElements><tleParameters><EPHEMERIS_TYPE>0</EPHEMERIS_TYPE><CLASSIFICATION_TYPE>U</CLASSIFICATION_TYPE><NORAD_CAT_ID>65774</NORAD_CAT_ID><ELEMENT_SET_NO>999</ELEMENT_SET_NO><REV_AT_EPOCH>434</REV_AT_EPOCH><BSTAR>-.66932138E-2</BSTAR><MEAN_MOTION_DOT>-.214597E-2</MEAN_MOTION_DOT><MEAN_MOTION_DDOT>0</MEAN_MOTION_DDOT></tleParameters></data></segment></body></omm>
<omm id="CCSDS_OMM_VERS" version="2.0">
<header><CREATION_DATE/><ORIGINATOR/></header><body><segment><metadata><OBJECT_NAME>KUIPER-00156</OBJECT_NAME><OBJECT_ID>2025-217P</OBJECT_ID><CENTER_NAME>EARTH</CENTER_NAME><REF_FRAME>TEME</REF_FRAME><TIME_SYSTEM>UTC</TIME_SYSTEM><MEAN_ELEMENT_THEORY>SGP4</MEAN_ELEMENT_THEORY></metadata><data><meanElements><EPOCH>2025-12-30T22:00:03.000096</EPOCH><MEAN_MOTION>15.30706148</MEAN_MOTION><ECCENTRICITY>.00025029</ECCENTRICITY><INCLINATION>51.8751</INCLINATION><RA_OF_ASC_NODE>336.0769</RA_OF_ASC_NODE><ARG_OF_PERICENTER>93.4003</ARG_OF_PERICENTER><MEAN_ANOMALY>6.6107</MEAN_ANOMALY></meanElements><tleParameters><EPHEMERIS_TYPE>0</EPHEMERIS_TYPE><CLASSIFICATION_TYPE>U</CLASSIFICATION_TYPE><NORAD_CAT_ID>65775</NORAD_CAT_ID><ELEMENT_SET_NO>999</ELEMENT_SET_NO><REV_AT_EPOCH>567</REV_AT_EPOCH><BSTAR>-.49778866E-1</BSTAR><MEAN_MOTION_DOT>-.1364524E-1</MEAN_MOTION_DOT><MEAN_MOTION_DDOT>0</MEAN_MOTION_DDOT></tleParameters></data></segment></body></omm>
<omm id="CCSDS_OMM_VERS" version="2.0">
<header><CREATION_DATE/><ORIGINATOR/></header><body><segment><metadata><OBJECT_NAME>KUIPER-00158</OBJECT_NAME><OBJECT_ID>2025-217Q</OBJECT_ID><CENTER_NAME>EARTH</CENTER_NAME><REF_FRAME>TEME</REF_FRAME><TIME_SYSTEM>UTC</TIME_SYSTEM><MEAN_ELEMENT_THEORY>SGP4</MEAN_ELEMENT_THEORY></metadata><data><meanElements><EPOCH>2025-12-30T22:00:03.000096</EPOCH><MEAN_MOTION>14.79916744</MEAN_MOTION><ECCENTRICITY>.00009739</ECCENTRICITY><INCLINATION>51.8978</INCLINATION><RA_OF_ASC_NODE>349.7073</RA_OF_ASC_NODE><ARG_OF_PERICENTER>54.4740</ARG_OF_PERICENTER><MEAN_ANOMALY>207.1457</MEAN_ANOMALY></meanElements><tleParameters><EPHEMERIS_TYPE>0</EPHEMERIS_TYPE><CLASSIFICATION_TYPE>U</CLASSIFICATION_TYPE><NORAD_CAT_ID>65776</NORAD_CAT_ID><ELEMENT_SET_NO>999</ELEMENT_SET_NO><REV_AT_EPOCH>317</REV_AT_EPOCH><BSTAR>.41778442E-2</BSTAR><MEAN_MOTION_DOT>.31766E-3</MEAN_MOTION_DOT><MEAN_MOTION_DDOT>0</MEAN_MOTION_DDOT></tleParameters></data></segment></body></omm>
<omm id="CCSDS_OMM_VERS" version="2.0">
<header><CREATION_DATE/><ORIGINATOR/></header><body><segment><metadata><OBJECT_NAME>KUIPER-00163</OBJECT_NAME><OBJECT_ID>2025-217R</OBJECT_ID><CENTER_NAME>EARTH</CENTER_NAME><REF_FRAME>TEME</REF_FRAME><TIME_SYSTEM>UTC</TIME_SYSTEM><MEAN_ELEMENT_THEORY>SGP4</MEAN_ELEMENT_THEORY></metadata><data><meanElements><EPOCH>2025-12-30T22:22:40.450368</EPOCH><MEAN_MOTION>14.79719238</MEAN_MOTION><ECCENTRICITY>.00011982</ECCENTRICITY><INCLINATION>51.8979</INCLINATION><RA_OF_ASC_NODE>352.1412</RA_OF_ASC_NODE><ARG_OF_PERICENTER>90.8421</ARG_OF_PERICENTER><MEAN_ANOMALY>269.2678</MEAN_ANOMALY></meanElements><tleParameters><EPHEMERIS_TYPE>0</EPHEMERIS_TYPE><CLASSIFICATION_TYPE>U</CLASSIFICATION_TYPE><NORAD_CAT_ID>65777</NORAD_CAT_ID><ELEMENT_SET_NO>999</ELEMENT_SET_NO><REV_AT_EPOCH>1462</REV_AT_EPOCH><BSTAR>.11151732E-1</BSTAR><MEAN_MOTION_DOT>.85445E-3</MEAN_MOTION_DOT><MEAN_MOTION_DDOT>0</MEAN_MOTION_DDOT></tleParameters></data></segment></body></omm>
<omm id="CCSDS_OMM_VERS" version="2.0">
<header><CREATION_DATE/><ORIGINATOR/></header><body><segment><metadata><OBJECT_NAME>KUIPER-00165</OBJECT_NAME><OBJECT_ID>2025-217S</OBJECT_ID><CENTER_NAME>EARTH</CENTER_NAME><REF_FRAME>TEME</REF_FRAME><TIME_SYSTEM>UTC</TIME_SYSTEM><MEAN_ELEMENT_THEORY>SGP4</MEAN_ELEMENT_THEORY></metadata><data><meanElements><EPOCH>2025-12-30T22:00:03.000096</EPOCH><MEAN_MOTION>14.97816589</MEAN_MOTION><ECCENTRICITY>.00061838</ECCENTRICITY><INCLINATION>51.8937</INCLINATION><RA_OF_ASC_NODE>340.7398</RA_OF_ASC_NODE><ARG_OF_PERICENTER>100.5683</ARG_OF_PERICENTER><MEAN_ANOMALY>152.5184</MEAN_ANOMALY></meanElements><tleParameters><EPHEMERIS_TYPE>0</EPHEMERIS_TYPE><CLASSIFICATION_TYPE>U</CLASSIFICATION_TYPE><NORAD_CAT_ID>65778</NORAD_CAT_ID><ELEMENT_SET_NO>999</ELEMENT_SET_NO><REV_AT_EPOCH>481</REV_AT_EPOCH><BSTAR>-.94521841E-1</BSTAR><MEAN_MOTION_DOT>-.1040687E-1</MEAN_MOTION_DOT><MEAN_MOTION_DDOT>0</MEAN_MOTION_DDOT></tleParameters></data></segment></body></omm>
<omm id="CCSDS_OMM_VERS" version="2.0">
<header><CREATION_DATE/><ORIGINATOR/></header><body><segment><metadata><OBJECT_NAME>KUIPER-00166</OBJECT_NAME><OBJECT_ID>2025-217T</OBJECT_ID><CENTER_NAME>EARTH</CENTER_NAME><REF_FRAME>TEME</REF_FRAME><TIME_SYSTEM>UTC</TIME_SYSTEM><MEAN_ELEMENT_THEORY>SGP4</MEAN_ELEMENT_THEORY></metadata><data><meanElements><EPOCH>2025-12-30T07:28:50.683008</EPOCH><MEAN_MOTION>15.38181436</MEAN_MOTION><ECCENTRICITY>.0004356</ECCENTRICITY><INCLINATION>51.8722</INCLINATION><RA_OF_ASC_NODE>339.0115</RA_OF_ASC_NODE><ARG_OF_PERICENTER>62.8142</ARG_OF_PERICENTER><MEAN_ANOMALY>297.3288</MEAN_ANOMALY></meanElements><tleParameters><EPHEMERIS_TYPE>0</EPHEMERIS_TYPE><CLASSIFICATION_TYPE>U</CLASSIFICATION_TYPE><NORAD_CAT_ID>65779</NORAD_CAT_ID><ELEMENT_SET_NO>999</ELEMENT_SET_NO><REV_AT_EPOCH>1475</REV_AT_EPOCH><BSTAR>.1428189E-2</BSTAR><MEAN_MOTION_DOT>.54562E-3</MEAN_MOTION_DOT><MEAN_MOTION_DDOT>0</MEAN_MOTION_DDOT></tleParameters></data></segment></body></omm>

</ndm>
